{"type": "FeatureCollection", "features": [ {"type": "Feature", "properties": {"norad_id": 43648, "name": "BEIDOU-3 M15 (C34)", "group": "gnss", "lat": -50.64934630214704, "lon": -115.11985533226049, "alt_km": 21533.937530645766, "timestamp": "2025-12-20T05:41:50.273472+00:00", "meta": {"OBJECT_NAME": "BEIDOU-3 M15 (C34)", "OBJECT_ID": "2018-078B", "EPOCH": "2025-12-19T06:30:41.361984", "MEAN_MOTION": 1.86232317, "ECCENTRICITY": 0.0003969, "INCLINATION": 54.2518, "RA_OF_ASC_NODE": 306.2933, "ARG_OF_PERICENTER": 20.1104, "MEAN_ANOMALY": 339.8954, "EPHEMERIS_TYPE": 0, "CLASSIFICATION_TYPE": "U", "NORAD_CAT_ID": 43648, "ELEMENT_SET_NO": 999, "REV_AT_EPOCH": 4882, "BSTAR": 0, "MEAN_MOTION_DOT": -7.6e-07, "MEAN_MOTION_DDOT": 0}, "tle": {"line1": "1 43648U 18078B   25353.27131206 -.00000076  00000+0  00000+0 0  9991", "line2": "2 43648  54.2518 306.2933 0003969  20.1104 339.8954  1.86232317 48829"}}, "geometry": {"type": "Point", "coordinates": [-115.11985533226049, -50.64934630214704]}}, {"type": "Feature", "properties": {"norad_id": 43683, "name": "BEIDOU-3 G1 (C59)", "group": "gnss", "lat": -1.4038387212454495, "lon": -45.470583091975755, "alt_km": 35793.70702974035, "timestamp": "2025-12-20T05:41:50.273490+00:00", "meta": {"OBJECT_NAME": "BEIDOU-3 G1 (C59)", "OBJECT_ID": "2018-085A", "EPOCH": "2025-12-19T20:46:38.742816", "MEAN_MOTION": 1.00268758, "ECCENTRICITY": 0.00016124, "INCLINATION": 2.6249, "RA_OF_ASC_NODE": 102.7579, "ARG_OF_PERICENTER": 46.9315, "MEAN_ANOMALY": 30.7064, "EPHEMERIS_TYPE": 0, "CLASSIFICATION_TYPE": "U", "NORAD_CAT_ID": 43683, "ELEMENT_SET_NO": 999, "REV_AT_EPOCH": 2626, "BSTAR": 0, "MEAN_MOTION_DOT": -2.56e-06, "MEAN_MOTION_DDOT": 0}, "tle": {"line1": "1 43683U 18085A   25353.86572619 -.00000256  00000+0  00000+0 0  9990", "line2": "2 43683   2.6249 102.7579 0001612  46.9315  30.7064  1.00268758 26261"}}, "geometry": {"type": "Point", "coordinates": [-45.470583091975755, -1.4038387212454495]}}, {"type": "Feature", "properties": {"norad_id": 43687, "name": "COSMOS 2529 (757)", "group": "gnss", "lat": -51.38334930941067, "lon": 55.753986201901185, "alt_km": 19118.254246567, "timestamp": "2025-12-20T05:41:50.273512+00:00", "meta": {"OBJECT_NAME": "COSMOS 2529 (757)", "OBJECT_ID": "2018-086A", "EPOCH": "2025-12-18T12:23:46.661856", "MEAN_MOTION": 2.13102105, "ECCENTRICITY": 0.00070461, "INCLINATION": 64.2922, "RA_OF_ASC_NODE": 198.6932, "ARG_OF_PERICENTER": 253.6593, "MEAN_ANOMALY": 106.345, "EPHEMERIS_TYPE": 0, "CLASSIFICATION_TYPE": "U", "NORAD_CAT_ID": 43687, "ELEMENT_SET_NO": 999, "REV_AT_EPOCH": 5543, "BSTAR": 0, "MEAN_MOTION_DOT": 1.09e-06, "MEAN_MOTION_DDOT": 0}, "tle": {"line1": "1 43687U 18086A   25352.51651229  .00000109  00000+0  00000+0 0  9997", "line2": "2 43687  64.2922 198.6932 0007046 253.6593 106.3450  2.13102105 55434"}}, "geometry": {"type": "Point", "coordinates": [55.753986201901185, -51.38334930941067]}}, {"type": "Feature", "properties": {"norad_id": 43706, "name": "BEIDOU-3 M17 (C36)", "group": "gnss", "lat": -1.037641219891742, "lon": 9.12320735103077, "alt_km": 21538.782058352765, "timestamp": "2025-12-20T05:41:50.273530+00:00", "meta": {"OBJECT_NAME": "BEIDOU-3 M17 (C36)", "OBJECT_ID": "2018-093A", "EPOCH": "2025-12-19T16:50:45.209760", "MEAN_MOTION": 1.86228501, "ECCENTRICITY": 0.00060719, "INCLINATION": 54.1746, "RA_OF_ASC_NODE": 188.3854, "ARG_OF_PERICENTER": 307.8819, "MEAN_ANOMALY": 234.4543, "EPHEMERIS_TYPE": 0, "CLASSIFICATION_TYPE": "U", "NORAD_CAT_ID": 43706, "ELEMENT_SET_NO": 999, "REV_AT_EPOCH": 4819, "BSTAR": 0, "MEAN_MOTION_DOT": 1e-06, "MEAN_MOTION_DDOT": 0}, "tle": {"line1": "1 43706U 18093A   25353.70191215  .00000100  00000+0  00000+0 0  9994", "line2": "2 43706  54.1746 188.3854 0006071 307.8819 234.4543  1.86228501 48196"}}, "geometry": {"type": "Point", "coordinates": [9.12320735103077, -1.037641219891742]}}, {"type": "Feature", "properties": {"norad_id": 43707, "name": "BEIDOU-3 M18 (C37)", "group": "gnss", "lat": -53.93841434157872, "lon": 105.30723418435073, "alt_km": 21530.973754195482, "timestamp": "2025-12-20T05:41:50.273547+00:00", "meta": {"OBJECT_NAME": "BEIDOU-3 M18 (C37)", "OBJECT_ID": "2018-093B", "EPOCH": "2025-12-16T14:33:42.784416", "MEAN_MOTION": 1.8622677, "ECCENTRICITY": 0.00063186, "INCLINATION": 54.1735, "RA_OF_ASC_NODE": 188.4822, "ARG_OF_PERICENTER": 353.2257, "MEAN_ANOMALY": 6.8349, "EPHEMERIS_TYPE": 0, "CLASSIFICATION_TYPE": "U", "NORAD_CAT_ID": 43707, "ELEMENT_SET_NO": 999, "REV_AT_EPOCH": 4813, "BSTAR": 0, "MEAN_MOTION_DOT": 1.15e-06, "MEAN_MOTION_DDOT": 0}, "tle": {"line1": "1 43707U 18093B   25350.60674519  .00000115  00000+0  00000+0 0  9990", "line2": "2 43707  54.1735 188.4822 0006318 353.2257   6.8349  1.86226770 48131"}}, "geometry": {"type": "Point", "coordinates": [105.30723418435073, -53.93841434157872]}}, {"type": "Feature", "properties": {"norad_id": 43873, "name": "GPS BIII-1  (PRN 04)", "group": "gnss", "lat": 19.10425070842916, "lon": -94.47456339200453, "alt_km": 20102.695393732556, "timestamp": "2025-12-20T05:41:50.273565+00:00", "meta": {"OBJECT_NAME": "GPS BIII-1  (PRN 04)", "OBJECT_ID": "2018-109A", "EPOCH": "2025-12-19T11:24:42.219360", "MEAN_MOTION": 2.00553941, "ECCENTRICITY": 0.003755, "INCLINATION": 55.5704, "RA_OF_ASC_NODE": 99.2813, "ARG_OF_PERICENTER": 195.3177, "MEAN_ANOMALY": 131.4113, "EPHEMERIS_TYPE": 0, "CLASSIFICATION_TYPE": "U", "NORAD_CAT_ID": 43873, "ELEMENT_SET_NO": 999, "REV_AT_EPOCH": 5146, "BSTAR": 0, "MEAN_MOTION_DOT": -2.3e-07, "MEAN_MOTION_DDOT": 0}, "tle": {"line1": "1 43873U 18109A   25353.47548865 -.00000023  00000+0  00000+0 0  9993", "line2": "2 43873  55.5704  99.2813 0037550 195.3177 131.4113  2.00553941 51467"}}, "geometry": {"type": "Point", "coordinates": [-94.47456339200453, 19.10425070842916]}}, {"type": "Feature", "properties": {"norad_id": 44231, "name": "BEIDOU-2 G8 (C01)", "group": "gnss", "lat": -1.5303430232718844, "lon": -41.060125915602065, "alt_km": 35751.620067153766, "timestamp": "2025-12-20T05:41:50.273582+00:00", "meta": {"OBJECT_NAME": "BEIDOU-2 G8 (C01)", "OBJECT_ID": "2019-027A", "EPOCH": "2025-12-19T12:14:23.449632", "MEAN_MOTION": 1.00276563, "ECCENTRICITY": 0.0008196, "INCLINATION": 1.6785, "RA_OF_ASC_NODE": 74.7229, "ARG_OF_PERICENTER": 258.5641, "MEAN_ANOMALY": 83.1013, "EPHEMERIS_TYPE": 0, "CLASSIFICATION_TYPE": "U", "NORAD_CAT_ID": 44231, "ELEMENT_SET_NO": 999, "REV_AT_EPOCH": 2427, "BSTAR": 0, "MEAN_MOTION_DOT": -2.24e-06, "MEAN_MOTION_DDOT": 0}, "tle": {"line1": "1 44231U 19027A   25353.50999363 -.00000224  00000+0  00000+0 0  9992", "line2": "2 44231   1.6785  74.7229 0008196 258.5641  83.1013  1.00276563 24270"}}, "geometry": {"type": "Point", "coordinates": [-41.060125915602065, -1.5303430232718844]}}, {"type": "Feature", "properties": {"norad_id": 44299, "name": "COSMOS 2534 (758)", "group": "gnss", "lat": 13.179689343828214, "lon": -154.8956376092731, "alt_km": 19128.818376270763, "timestamp": "2025-12-20T05:41:50.273603+00:00", "meta": {"OBJECT_NAME": "COSMOS 2534 (758)", "OBJECT_ID": "2019-030A", "EPOCH": "2025-12-18T18:30:09.690336", "MEAN_MOTION": 2.13102412, "ECCENTRICITY": 0.0008748, "INCLINATION": 64.3658, "RA_OF_ASC_NODE": 198.6898, "ARG_OF_PERICENTER": 284.2192, "MEAN_ANOMALY": 45.4012, "EPHEMERIS_TYPE": 0, "CLASSIFICATION_TYPE": "U", "NORAD_CAT_ID": 44299, "ELEMENT_SET_NO": 999, "REV_AT_EPOCH": 5107, "BSTAR": 0, "MEAN_MOTION_DOT": 1.08e-06, "MEAN_MOTION_DDOT": 0}, "tle": {"line1": "1 44299U 19030A   25352.77094549  .00000108  00000+0  00000+0 0  9990", "line2": "2 44299  64.3658 198.6898 0008748 284.2192  45.4012  2.13102412 51071"}}, "geometry": {"type": "Point", "coordinates": [-154.8956376092731, 13.179689343828214]}}, {"type": "Feature", "properties": {"norad_id": 44337, "name": "BEIDOU-3 IGSO-2 (C39)", "group": "gnss", "lat": 36.7669623466213, "lon": -50.907743314382394, "alt_km": 35725.6950014055, "timestamp": "2025-12-20T05:41:50.273623+00:00", "meta": {"OBJECT_NAME": "BEIDOU-3 IGSO-2 (C39)", "OBJECT_ID": "2019-035A", "EPOCH": "2025-12-19T20:41:01.781088", "MEAN_MOTION": 1.00269267, "ECCENTRICITY": 0.0037549, "INCLINATION": 55.228, "RA_OF_ASC_NODE": 160.4388, "ARG_OF_PERICENTER": 202.2301, "MEAN_ANOMALY": 155.7105, "EPHEMERIS_TYPE": 0, "CLASSIFICATION_TYPE": "U", "NORAD_CAT_ID": 44337, "ELEMENT_SET_NO": 999, "REV_AT_EPOCH": 2386, "BSTAR": 0, "MEAN_MOTION_DOT": -6.2e-07, "MEAN_MOTION_DDOT": 0}, "tle": {"line1": "1 44337U 19035A   25353.86182617 -.00000062  00000+0  00000+0 0  9993", "line2": "2 44337  55.2280 160.4388 0037549 202.2301 155.7105  1.00269267 23869"}}, "geometry": {"type": "Point", "coordinates": [-50.907743314382394, 36.7669623466213]}}, {"type": "Feature", "properties": {"norad_id": 44506, "name": "GPS BIII-2  (PRN 18)", "group": "gnss", "lat": 41.773496059229664, "lon": 15.777397360096913, "alt_km": 20301.595429358327, "timestamp": "2025-12-20T05:41:50.273641+00:00", "meta": {"OBJECT_NAME": "GPS BIII-2  (PRN 18)", "OBJECT_ID": "2019-056A", "EPOCH": "2025-12-19T09:43:49.309248", "MEAN_MOTION": 2.00566645, "ECCENTRICITY": 0.0057727, "INCLINATION": 55.7191, "RA_OF_ASC_NODE": 338.2882, "ARG_OF_PERICENTER": 198.5275, "MEAN_ANOMALY": 334.872, "EPHEMERIS_TYPE": 0, "CLASSIFICATION_TYPE": "U", "NORAD_CAT_ID": 44506, "ELEMENT_SET_NO": 999, "REV_AT_EPOCH": 4646, "BSTAR": 0, "MEAN_MOTION_DOT": -8.1e-07, "MEAN_MOTION_DDOT": 0}, "tle": {"line1": "1 44506U 19056A   25353.40543182 -.00000081  00000+0  00000+0 0  9993", "line2": "2 44506  55.7191 338.2882 0057727 198.5275 334.8720  2.00566645 46469"}}, "geometry": {"type": "Point", "coordinates": [15.777397360096913, 41.773496059229664]}}]}